[{"OBJECT_NAME":"OBJECT Y","OBJECT_ID":"2023-085Y","EPOCH":"2026-03-09T22:38:54.992256","MEAN_MOTION":15.32500153,"ECCENTRICITY":0.00063298,"INCLINATION":97.4849,"RA_OF_ASC_NODE":180.8653,"ARG_OF_PERICENTER":67.4431,"MEAN_ANOMALY":292.748,"EPHEMERIS_TYPE":0,"CLASSIFICATION_TYPE":"U","NORAD_CAT_ID":57026,"ELEMENT_SET_NO":999,"REV_AT_EPOCH":15160,"BSTAR":0.00065512761,"MEAN_MOTION_DOT":0.00020524,"MEAN_MOTION_DDOT":0},{"OBJECT_NAME":"STARLINK-32449","OBJECT_ID":"2024-193K","EPOCH":"2026-03-09T11:28:23.328192","MEAN_MOTION":15.30175539,"ECCENTRICITY":8.438e-5,"INCLINATION":53.1602,"RA_OF_ASC_NODE":92.0291,"ARG_OF_PERICENTER":77.9041,"MEAN_ANOMALY":282.2055,"EPHEMERIS_TYPE":0,"CLASSIFICATION_TYPE":"U","NORAD_CAT_ID":61670,"ELEMENT_SET_NO":999,"REV_AT_EPOCH":7649,"BSTAR":-4.6982467e-5,"MEAN_MOTION_DOT":-1.749e-5,"MEAN_MOTION_DDOT":0}]
